STARLINK-1331           
1 45578U 20025AZ  21259.59924552 -.00000479  00000-0 -13281-4 0  9999
2 45578  53.0549 216.8308 0001604  75.9319 284.1848 15.06398128 79071
STARLINK-1332           
1 45579U 20025BA  21259.19283855 -.00000707  00000-0 -28544-4 0  9992
2 45579  53.0538 178.6542 0003489 238.0332 122.0318 15.06388373 79562
STARLINK-1333           
1 45580U 20025BB  21259.60569801 -.00000831  00000-0 -36887-4 0  9995
2 45580  53.0537 226.8012 0001560  70.9585 289.1573 15.06388148 78929
STARLINK-1335           
1 45581U 20025BC  21259.61031168 -.00000995  00000-0 -47935-4 0  9994
2 45581  53.0537 216.7834 0001651  64.4824 295.6336 15.06387593 79063
STARLINK-1337           
1 45582U 20025BD  21260.03049873  .00000866  00000-0  77068-4 0  9990
2 45582  53.0548 214.8974 0001775  62.7008 297.4161 15.06386402 78526
STARLINK-1340           
1 45583U 20025BE  21259.61399986  .00000624  00000-0  60825-4 0  9991
2 45583  53.0533 216.7640 0001667  61.7136 298.4021 15.06384992 79061
STARLINK-1343           
1 45584U 20025BF  21259.60293174 -.00000660  00000-0 -25412-4 0  9998
2 45584  53.0530 216.8125 0001576  56.9889 303.1251 15.06392689 79069
STARLINK-1345           
1 45585U 20025BG  21260.01575566  .00000816  00000-0  73708-4 0  9996
2 45585  53.0548 214.9618 0001878  75.9486 284.1711 15.06399687 78528
STARLINK-1347           
1 45586U 20025BH  21260.02312817  .00000956  00000-0  83094-4 0  9990
2 45586  53.0552 214.9063 0001927  69.8850 290.2346 15.06399870 78515
STARLINK-1349           
1 45587U 20025BJ  21259.59555715 -.00000275  00000-0  45959-6 0  9992
2 45587  53.0552 216.8523 0001591  66.6803 293.4353 15.06393449 79068
STARLINK-1360           
1 45588U 20025BK  21260.03786760 -.00000108  00000-0  11684-4 0  9991
2 45588  53.0545 214.8645 0001696  45.0010 315.1116 15.06395992 78525
STARLINK-1364           
1 45589U 20025BL  21259.30436908  .00001122  00000-0  94188-4 0  9992
2 45589  53.0539 218.1548 0001513  66.0976 294.0171 15.06395948 79012
STARLINK-1365           
1 45590U 20025BM  21259.98349887  .00000088  00000-0  24769-4 0  9995
2 45590  53.0538 245.1050 0000981  72.4947 287.6149 15.06399089 78098
G-SAT                   
1 45597U 98067RK  21259.42178492  .00019338  00000-0  23341-3 0  9996
2 45597  51.6373 231.7663 0002767 336.4500  23.6366 15.60763436 78808
QUETZAL-1               
1 45598U 98067RL  21259.31483423  .00029297  00000-0  31112-3 0  9998
2 45598  51.6369 229.5422 0002085  39.1959 320.9187 15.63808993 78759
XINGYUN-2 01            
1 45602U 20028A   21260.31904979 -.00000054  00000-0  32019-6 0  9993
2 45602  97.5104 283.0792 0012873  53.0221 307.2180 15.00907225 73978
XINGYUN-2 02            
1 45603U 20028B   21260.21813413  .00001101  00000-0  90699-4 0  9994
2 45603  97.5422 282.7439 0013028  34.2410 325.9650 15.00996360 73966
ULTP                    
1 45605U 20011D   21259.79452654  .00002400  00000-0  95242-4 0  9997
2 45605  51.6477 323.9026 0006629 303.3433  56.6912 15.29438920 75148
COSMOS 2546             
1 45608U 20031A   21260.10739736 -.00000864  00000-0  00000+0 0  9994
2 45608  63.4480 249.0552 6759344 268.8107 209.8288  2.00529753  9679
XJS G                   
1 45611U 20032A   21259.81439359  .00002620  00000-0  88006-4 0  9991
2 45611  35.0375  33.2537 0006669  74.4775  51.3289 15.30463516 72726
XJS H                   
1 45612U 20032B   21259.81429755  .00003634  00000-0  12147-3 0  9999
2 45612  35.0379  33.2558 0006879  72.3374  53.4000 15.30471846 72728
HEAD-4                  
1 45624U 20034A   21260.21763025  .00002465  00000-0  99184-4 0  9999
2 45624  97.3478  40.8959 0014482  50.9335  70.2162 15.25738607 72203
GAOFEN 9-02             
1 45625U 20034B   21260.22214502  .00001364  00000-0  59649-4 0  9991
2 45625  97.3510  40.1060 0013750  40.9055  81.3794 15.23681627 72135
STARLINK-1441           
1 45658U 20035B   21259.55962339 -.00000072  00000-0  14091-4 0  9998
2 45658  53.0538 207.0107 0001423  62.1242 297.9891 15.06391727 72283
STARLINK-1442           
1 45659U 20035C   21260.03141874  .00000997  00000-0  85833-4 0  9994
2 45659  53.0545 204.8869 0001724  66.0448 294.0722 15.06397481 71943
STARLINK-1443           
1 45660U 20035D   21259.57068126 -.00000622  00000-0 -22892-4 0  9994
2 45660  53.0559 206.9631 0001764  67.3119 292.8056 15.06392833 72283
STARLINK-1444           
1 45661U 20035E   21259.58910791 -.00000691  00000-0 -27510-4 0  9998
2 45661  53.0551 206.8804 0001603  54.8089 305.3049 15.06392051 72280
STARLINK-1445           
1 45662U 20035F   21260.06827723  .00001992  00000-0  15259-3 0  9995
2 45662  53.0549 204.7277 0001882  62.3171 297.8009 15.06402948 71999
STARLINK-1446           
1 45663U 20035G   21259.34214913  .00006068  00000-0  42601-3 0  9996
2 45663  53.0524 207.9872 0001798  67.3243 292.7936 15.06391007 72245
STARLINK-1448           
1 45665U 20035J   21260.03879223  .00000918  00000-0  80517-4 0  9994
2 45665  53.0534 204.8584 0001611  61.7781 298.3370 15.06395915 71945
STARLINK-1449           
1 45666U 20035K   21259.58079338  .00001707  00000-0  13350-3 0  9999
2 45666  53.0547 206.9104 0001772  74.2697 285.8487 15.06391155 72273
STARLINK-1450           
1 45667U 20035L   21259.57805182 -.00000234  00000-0  32183-5 0  9995
2 45667  53.0537 206.9278 0001694  75.5696 284.5481 15.06400023 72276
STARLINK-1451           
1 45668U 20035M   21260.01667847 -.00000308  00000-0 -17528-5 0  9990
2 45668  53.0557 204.9629 0001953  67.0594 293.0601 15.06394901 71947
STARLINK-1452           
1 45669U 20035N   21259.79551864 -.00000663  00000-0 -25583-4 0  9998
2 45669  53.0542 205.9490 0001852  75.8791 284.2404 15.06394714 72310
STARLINK-1453           
1 45670U 20035P   21259.72087624  .00000710  00000-0  66564-4 0  9996
2 45670  53.0531 176.2855 0001849  66.1242 293.9941 15.06389604 72613
STARLINK-1454           
1 45671U 20035Q   21259.26842502 -.00000628  00000-0 -23270-4 0  9997
2 45671  53.0538 208.3157 0001590  65.2867 294.8287 15.06396129 71824
STARLINK-1455           
1 45672U 20035R   21260.00838804 -.00000512  00000-0 -15433-4 0  9996
2 45672  53.0563 175.0011 0002102  69.2707 290.8507 15.06392320 72358
STARLINK-1456           
1 45673U 20035S   21259.54855597  .00000120  00000-0  26956-4 0  9997
2 45673  53.0551 207.0638 0001703  79.2747 280.8434 15.06399862 72286
STARLINK-1457           
1 45674U 20035T   21259.82132073 -.00000625  00000-0 -23058-4 0  9998
2 45674  53.0540 205.8348 0001591  64.8092 295.3062 15.06391933 72297
STARLINK-1458           
1 45675U 20035U   21259.27948017 -.00000345  00000-0 -42831-5 0  9991
2 45675  53.0543 208.2722 0001551  67.5304 292.5849 15.06401486 72204
STARLINK-1460           
1 45676U 20035V   21259.58173907  .00001036  00000-0  88477-4 0  9995
2 45676  53.0532 206.9073 0001822  65.0578 295.0600 15.06390637 72246
STARLINK-1392           
1 45677U 20035W   21259.79183220  .00001407  00000-0  11336-3 0  9999
2 45677  53.0549 205.9659 0001782  67.5960 292.5218 15.06400967 72314
STARLINK-1393           
1 45678U 20035X   21259.78538042  .00000924  00000-0  80974-4 0  9993
2 45678  53.0534 195.9963 0001750  63.7945 296.3224 15.06391704 72431
STARLINK-1394           
1 45679U 20035Y   21259.78906891  .00000890  00000-0  78664-4 0  9990
2 45679  53.0546 195.9775 0001583  67.0800 293.0356 15.06388934 72450
STARLINK-1395           
1 45680U 20035Z   21259.53105417 -.00000418  00000-0 -91599-5 0  9991
2 45680  53.0546 197.1397 0002041  64.3211 295.7989 15.06390324 72404
STARLINK-1396           
1 45681U 20035AA  21259.52736909  .00000014  00000-0  19853-4 0  9999
2 45681  53.0530 197.1544 0001707  68.9716 291.1456 15.06391064 72007
STARLINK-1397           
1 45682U 20035AB  21259.53473460  .00001428  00000-0  11473-3 0  9990
2 45682  53.0553 197.1232 0001572  59.2176 300.8967 15.06398696 72407
STARLINK-1399           
1 45683U 20035AC  21259.31726694  .00000576  00000-0  57603-4 0  9996
2 45683  53.0533 198.0949 0001896  59.9342 300.1835 15.06396978 72387
STARLINK-1401           
1 45684U 20035AD  21259.56054039  .00001448  00000-0  11612-3 0  9999
2 45684  53.0541 197.0047 0001879  66.3838 293.7348 15.06399636 72423
STARLINK-1402           
1 45685U 20035AE  21260.02127376  .00001118  00000-0  93926-4 0  9991
2 45685  53.0548 194.9395 0001851  65.9073 294.2109 15.06405094 72088
STARLINK-1404           
1 45686U 20035AF  21260.01391212  .00001241  00000-0  10224-3 0  9999
2 45686  53.0536 194.9719 0001879  62.4327 297.6853 15.06393706 72089
STARLINK-1406           
1 45687U 20035AG  21259.53059098 -.00000735  00000-0 -31265-4 0  9996
2 45687  53.0014 187.1340 0001675  52.3416 307.7724 15.05577465 72531
STARLINK-1408           
1 45688U 20035AH  21259.34306972  .00000197  00000-0  32127-4 0  9990
2 45688  53.0536 197.9789 0001479  71.4122 288.7028 15.06395417 72389
STARLINK-1413           
1 45689U 20035AJ  21259.56791591 -.00000695  00000-0 -27766-4 0  9998
2 45689  53.0534 196.9711 0001629  64.0334 296.0823 15.06390028 72335
STARLINK-1414           
1 45690U 20035AK  21259.20053684 -.00000461  00000-0 -12430-4 0  9998
2 45690  53.0020 198.6105 0001859  67.0342 293.0842 15.05575505 72343
STARLINK-1415           
1 45691U 20035AL  21259.55316598 -.00000363  00000-0 -54763-5 0  9990
2 45691  53.0549 197.0416 0001793  55.2444 304.8714 15.06397989 72424
STARLINK-1416           
1 45692U 20035AM  21259.54579369 -.00000186  00000-0  64489-5 0  9995
2 45692  53.0545 197.0759 0001689  66.3978 293.7188 15.06397818 72411
STARLINK-1417           
1 45693U 20035AN  21259.56422295  .00001130  00000-0  94762-4 0  9998
2 45693  53.0544 196.9915 0001892  69.4278 290.6914 15.06399928 72413
STARLINK-1419           
1 45694U 20035AP  21259.30620654 -.00000147  00000-0  90507-5 0  9992
2 45694  53.0537 198.1459 0001868  63.8461 296.2720 15.06398618 72375
